TRANSIT 16              
1 02807U 67048A   09190.07484318  .00000074  00000-0  10000-3 0  2589
2 02807  89.6517 202.8977 0019064 170.1749 189.9773 13.49715099 73573
TRANSIT 17              
1 02965U 67092A   09190.34785927  .00000078  00000-0  10000-3 0  5423
2 02965  89.2601 121.2051 0049619   7.7626 352.4280 13.52425104 60118
TRANSIT 18              
1 03133U 68012A   09190.82653565  .00000074  00000-0  10000-3 0  3164
2 03133  89.9811 286.6698 0073208 258.1256 101.1673 13.50527125 35617
NNSS 19                 
1 04507U 70067A   09190.21991073 -.00000029  00000-0 -55307-4 0  9747
2 04507  89.8658 311.4181 0173929  20.7721 340.0380 13.50136279912659
NNSS O-20               
1 06909U 73081A   09190.20187311  .00000048  00000-0  38705-4 0  4078
2 06909  89.8574 357.7274 0160279  42.7585 318.5907 13.69753364982074
TRANSAT                 
1 10457U 77106A   09190.71878673  .00000072  00000-0  10000-3 0  8772
2 10457  89.6782 247.9871 0023454 202.3386 157.6744 13.48263249559004
NOVA I                  
1 12458U 81044A   09190.89108673  .00000050  00000-0  10000-3 0  7872
2 12458  90.0945 116.0422 0016642  79.7785 280.5288 13.22703220358840
NOVA 3                  
1 15362U 84110A   09190.18619174  .00000050  00000-0  10000-3 0  9750
2 15362  89.9793  50.7134 0030801 305.9940  53.8340 13.22479015194018
OSCAR 30                
1 15935U 85066A   09189.93785163  .00000064  00000-0  96490-4 0  4444
2 15935  90.0502  22.8834 0171490  84.0626 278.0037 13.35259688163609
OSCAR 24                
1 15936U 85066B   09190.11606422  .00000066  00000-0  10000-3 0  7512
2 15936  90.0374  19.9416 0172135  86.5211 275.5606 13.35159206165751
POLAR BEAR              
1 17070U 86088A   09191.02085009  .00000024  00000-0  13776-4 0  8105
2 17070  89.5464 108.4984 0037483 197.2585 162.7318 13.74338517135772
OSCAR 27                
1 18361U 87080A   09191.10334526  .00000069  00000-0  10000-3 0  4316
2 18361  90.3289 234.1666 0108130 113.9658 247.2840 13.44074894 69709
OSCAR 29                
1 18362U 87080B   09190.11789329  .00000069  00000-0  10000-3 0  6886
2 18362  90.3289 234.2521 0109415 127.4898 233.6249 13.43700891 69348
OSCAR 23                
1 19070U 88033A   09189.87388977  .00000055  00000-0  10000-3 0  6040
2 19070  90.2465 185.4205 0188677 300.1635  58.0914 13.27100001 26713
OSCAR 32                
1 19071U 88033B   09191.06798472  .00000055  00000-0  10000-3 0  2912
2 19071  90.2464 185.5318 0186881 288.9870  69.1091 13.27309872 27030
NOVA 11                 
1 19223U 88052A   09190.11752532  .00000050  00000-0  10000-3 0  4708
2 19223  90.0269  90.7044 0030900 348.6319  11.4114 13.22412896 16541
OSCAR 25                
1 19419U 88074A   09190.10544026  .00000068  00000-0  10000-3 0  6807
2 19419  89.9131  31.2326 0098744  73.8787 287.3201 13.41806038 21770
OSCAR 31                
1 19420U 88074B   09191.10120397  .00000068  00000-0  10000-3 0  3550
2 19420  89.9131  31.1587 0096742  65.7714 295.3508 13.41861907 22008
